[{"OBJECT_NAME":"GEESAT-1 09","OBJECT_ID":"2022-058J","EPOCH":"2026-03-09T22:14:58.178400","MEAN_MOTION":14.996745,"ECCENTRICITY":0.0007116,"INCLINATION":49.9974,"RA_OF_ASC_NODE":293.7726,"ARG_OF_PERICENTER":137.6611,"MEAN_ANOMALY":222.4884,"EPHEMERIS_TYPE":0,"CLASSIFICATION_TYPE":"U","NORAD_CAT_ID":52793,"ELEMENT_SET_NO":999,"REV_AT_EPOCH":20534,"BSTAR":0.00045554765,"MEAN_MOTION_DOT":5.429e-5,"MEAN_MOTION_DDOT":0},{"OBJECT_NAME":"STARLINK-5900","OBJECT_ID":"2023-037AL","EPOCH":"2026-03-09T21:53:00.724416","MEAN_MOTION":14.98330711,"ECCENTRICITY":0.00030004,"INCLINATION":69.9985,"RA_OF_ASC_NODE":264.0093,"ARG_OF_PERICENTER":269.6248,"MEAN_ANOMALY":90.4568,"EPHEMERIS_TYPE":0,"CLASSIFICATION_TYPE":"U","NORAD_CAT_ID":55948,"ELEMENT_SET_NO":999,"REV_AT_EPOCH":16450,"BSTAR":1.4037792e-5,"MEAN_MOTION_DOT":7.4e-7,"MEAN_MOTION_DDOT":0}]
